[{"OBJECT_NAME":"NUSAT-39 (TIKVAH ALPER)","OBJECT_ID":"2023-054Z","EPOCH":"2026-03-09T21:28:29.697024","MEAN_MOTION":15.41540471,"ECCENTRICITY":0.0007232,"INCLINATION":97.3191,"RA_OF_ASC_NODE":338.0552,"ARG_OF_PERICENTER":52.8862,"MEAN_ANOMALY":307.3045,"EPHEMERIS_TYPE":0,"CLASSIFICATION_TYPE":"U","NORAD_CAT_ID":56201,"ELEMENT_SET_NO":999,"REV_AT_EPOCH":16313,"BSTAR":0.00071343527,"MEAN_MOTION_DOT":0.00029967,"MEAN_MOTION_DDOT":0},{"OBJECT_NAME":"FLOCK 4BE-19","OBJECT_ID":"2024-149CZ","EPOCH":"2026-03-09T19:13:55.262784","MEAN_MOTION":15.40365217,"ECCENTRICITY":0.00032028,"INCLINATION":97.3777,"RA_OF_ASC_NODE":153.0945,"ARG_OF_PERICENTER":284.4115,"MEAN_ANOMALY":75.6776,"EPHEMERIS_TYPE":0,"CLASSIFICATION_TYPE":"U","NORAD_CAT_ID":60563,"ELEMENT_SET_NO":999,"REV_AT_EPOCH":8710,"BSTAR":0.00055922784,"MEAN_MOTION_DOT":0.00022538,"MEAN_MOTION_DDOT":0}]
